#dP2019  5  3  0  0  0.00000000      96 __u+U ITR00 FIT  IAC
## 2051 432000.00000000   900.00000000 58606 0.0000000000000
+   98   C01C02C03C04C05C06C07C08C09C10C11C12C13C14C16E01E02
+        E03E04E05E07E08E09E11E12E13E14E15E18E19E21E24E25E26
+        E27E30E31E33E36G01G02G03G04G05G06G07G08G09G10G11G12
+        G13G14G15G16G17G18G19G20G21G22G23G24G25G26G27G28G29
+        G30G31G32J01J02J03J07R01R02R03R04R05R07R08R09R10R11
+        R13R14R15R16R17R18R19R20R21R22R23R24R26  0  0  0  0
++        12 12 12 12 12  9  9  9  9  8  8  8  8  8  9  5  5
++         5  5  5  5  5  5  5  5  4  5  5  5  5  5  5  5  5
++         5  5  5  5  5  3  3  3  4  3  3  0  3  3  3  4  3
++         3  3  3  3  3  3  3  3  3  3  3  3  3  3  3  3  3
++         3  3  3  9  9  9 15  5  5  5  5  6  6  5  5  5  5
++         5  5  5  6  5  5  5  5  5  5  5  6  8  0  0  0  0
%c M  cc GPS ccc cccc cccc cccc cccc ccccc ccccc ccccc ccccc
%c cc cc ccc ccc cccc cccc cccc cccc ccccc ccccc ccccc ccccc
%f  0.0000000  0.000000000  0.00000000000  0.000000000000000
%f  0.0000000  0.000000000  0.00000000000  0.000000000000000
%i    0    0    0    0      0      0      0      0         0
%i    0    0    0    0      0      0      0      0         0
/* INFORMATION & ANALYSIS CENTER (IAC) OF MCC   (RAPID DATA)
/* S/V CLOCKS ARE ALIGNED TO GPS & GLONASS TIME RESPECTIVELY
/* USING THE BROADCAST EPHEMERIS                            
/* PCV:IGS14_2045 OL/AL:FES2004  NONE     YN ORB:CoN CLK:CoN
*  2019 05 03  4 15  0.00000000
PC01 -32292.359818  27090.468435    987.285034    535.924844
PC02   4340.499764  41910.132765  -1243.401586    183.372878
PC03 -14769.546942  39452.950863      4.592658    246.753364
PC04 -39617.539244  14438.862567    375.471717   -122.164143
PC05  21763.201736  36048.755960   -944.019811   -311.540706
PC06 -10124.385270  35146.208815 -20317.793240    775.048960
PC07 -15012.512205  21885.327183  32831.029897      6.957180
PC08 -25809.587150  30825.618479 -13069.939055    153.259302
PC09    227.964411  41664.067860  -4930.472452    733.306376
PC10   1659.778173  27083.165782  32472.348774   -717.370250
PC11 -15224.430902  18969.207438  13779.906584   -132.065959
PC12 -12507.454345 -10550.981039  22654.437229    632.051801
PC13 -12116.583066  31649.586594 -25192.560038   -689.396444
PC14 -20028.877710  -1071.101467 -19351.310437    639.960210
PC16  -6538.839676  37833.680216 -17179.297884   -671.647234
PE01 -11127.270332  14013.019246  23572.787713   -596.543305
PE02  11065.643639 -14039.006972 -23597.493620     58.571682
PE03   4494.715814 -23274.896326  17726.478823   -161.877114
PE04   9981.935089  27845.506335  -1055.440877   -273.893809
PE05  16428.729532  -5031.459125  24110.867084     63.731442
PE07 -18695.733722 -16077.798573 -16356.815208   -180.278659
PE08 -10256.806546 -27742.409593    995.389382   6362.467742
PE09  18754.992104  15941.764144  16462.379911   6451.249618
PE11  16523.948490   4890.928915 -24072.843449   5700.158198
PE12    605.793971  21315.173354 -20513.292060   6415.089963
PE13 -16364.348371  -4961.717793  24166.203734    386.492834
PE14  17673.454541 -16481.479642 -20681.462825   -552.181754
PE15   -946.751542 -21106.674086  20744.226679    911.770491
PE18  -8934.158108  21332.020894   9331.942894   -650.380635
PE19  -5757.128737  21938.896935 -19006.787560     -6.679749
PE21 -27187.010217   3365.865515  11199.573417   -532.063971
PE24  27166.201674   9171.024940   7303.670340   6101.282310
PE25  27215.220182  -3335.024586 -11159.547953   1816.193585
PE26 -22444.457163  13904.049206  13383.702911   4613.462994
PE27 -27053.842675  -9226.122661  -7695.521641    477.724989
PE30 -11285.160430 -16454.944504 -21880.645394   4902.795564
PE31  11054.303699  16381.104055  22039.275944   -464.415138
PE33 -15075.848530  24935.450434  -5156.338999   -470.367685
PE36  22254.979639 -14169.633216 -13426.453386    716.892371
PG01  -6716.475596  18299.723381 -18066.594263     -7.521611
PG02  21734.275672 -15098.304411    -50.821050   -203.842603
PG03   2611.980443  17340.674981 -20011.848199    188.269070
PG04  11289.690396  17632.050051  16357.779488    156.317194
PG05  16935.928507  -6787.730005  19252.164767      1.014800
PG06  23184.144678  -4532.569874 -12129.106573    215.520568
PG07      0.000000      0.000000      0.000000 999999.999999
PG08  -6211.254339  23587.390655  10292.322867   -142.152197
PG09   8807.204074  22364.871078  11247.538590    418.297613
PG10 -24168.536088 -10876.787717  -2894.640586     56.974200
PG11  -6399.008221  24063.469955 -10113.555074   -614.594902
PG12   -747.091515 -16892.569634 -20742.994284    245.912666
PG13  12584.562893 -17222.173587  15687.656859    -65.302629
PG14 -15106.478652   1289.260850 -21480.317543    -82.074819
PG15   3573.307665 -24599.374184   8526.163040   -315.142582
PG16 -16406.938757   5209.539205  20162.840824    -37.157661
PG17  13509.083669   8761.924293 -20738.283917     48.621457
PG18 -14511.641814  19408.022901 -11199.084966     49.737007
PG19  14936.351608   -379.332172 -22262.830570   -323.586344
PG20 -21426.063980 -14170.497724   6945.682712    524.438167
PG21 -13056.595546  -9902.282718  21687.196082   -200.380554
PG22  -5348.761948  14945.456472 -21063.494909   -694.355391
PG23   1374.297294  26298.679615    410.657169   -187.798787
PG24   9310.376165 -19698.099445 -15119.700753    -65.557110
PG25 -13539.244294 -18409.062925 -13963.538392   -752.262511
PG26 -23047.707048  -1250.956857  13274.228417    191.568789
PG27 -12014.246210  14635.163250  18391.574732   -122.572901
PG28  22552.769614  13720.995679  -1784.963999    767.746871
PG29  -3877.225353 -25181.289893   7471.358240    210.967128
PG30  18198.570096   5487.793450  18643.918296    -97.523717
PG31 -24025.033136   5088.524568 -10662.767260     40.857339
PG32 -15061.699777  -5468.852976 -21142.208983   -104.947548
PJ01 -22014.725340  19375.751796 -25671.753766   -312.809877
PJ02 -29692.586159  24853.986476  21499.494888      2.420710
PJ03 -27716.586219  26307.862266  22831.424591     -0.107710
PJ07 -25384.462445  33658.174181    -18.463931     -0.019153
PR01 -13578.549416  -1419.714032 -21535.741482     43.227579
PR02   -287.711087  16400.406056 -19471.886903    366.671182
PR03  11620.264614  22083.618432  -5132.880481     -5.412990
PR04  16781.378183  14509.115480  12599.256689    304.812395
PR05  12218.209433   -605.962710  22395.671690     27.349352
PR07 -11835.207885 -22121.452428   4754.737532    -19.323473
PR08 -16725.797328 -15145.149785 -11847.412463     17.950307
PR09   9401.174878 -10812.019142 -21111.357848     67.643697
PR10  -7630.473143  -9956.370830 -22221.150732     48.968285
PR11 -23004.137977  -3681.422275 -10326.269429    -64.867517
PR13 -11055.159909  10439.024349  20456.932136    -23.180898
PR14   7953.444053  10086.175878  22046.483949     38.550163
PR15  22577.977096   4036.137607  11176.335674    101.724999
PR16  24151.429289  -4889.305532  -6386.481429      9.817834
PR17  -1751.631327  19734.503761 -16075.891896    224.969144
PR18   8799.866236   5870.406868 -23195.615183     -8.193580
PR19  14797.061157 -10716.173648 -17803.512952    -28.652947
PR20  12262.540804 -22396.065805   -432.507673   -376.861585
PR21   1371.723869 -19326.927231  16581.285947    -45.832528
PR22  -9999.275911  -3411.953451  23216.230704    -17.328879
PR23 -14899.476987  15325.010492  13907.398468    225.570776
PR24 -11083.675495  22922.571743  -1356.884725   -180.020928
PR26  12740.955226 -21870.104737  -3072.692222     -8.847889
EOF
